CCSDS_OMM_VERS = 2.0
CREATION_DATE  = 
ORIGINATOR     = 

OBJECT_NAME    = DELTA 2 R/B(1)
OBJECT_ID      = 1990-008B
CENTER_NAME    = EARTH
REF_FRAME      = TEME
TIME_SYSTEM    = UTC
MEAN_ELEMENT_THEORY = SGP/SGP4

EPOCH          = 2026-01-02T23:52:14.151072
MEAN_MOTION    = 15.47348327
ECCENTRICITY   = .01058098
INCLINATION    = 35.6049
RA_OF_ASC_NODE = 243.0856
ARG_OF_PERICENTER = 11.2163
MEAN_ANOMALY   = 349.0897

EPHEMERIS_TYPE = 0
CLASSIFICATION_TYPE = U
NORAD_CAT_ID   = 20453
ELEMENT_SET_NO = 999
REV_AT_EPOCH   = 91592
BSTAR          = .11039891E-2
MEAN_MOTION_DOT = .73326E-3
MEAN_MOTION_DDOT = 0

CCSDS_OMM_VERS = 2.0
CREATION_DATE  = 
ORIGINATOR     = 

OBJECT_NAME    = COSMOS 2058
OBJECT_ID      = 1990-010A
CENTER_NAME    = EARTH
REF_FRAME      = TEME
TIME_SYSTEM    = UTC
MEAN_ELEMENT_THEORY = SGP/SGP4

EPOCH          = 2026-01-03T13:14:00.089952
MEAN_MOTION    = 15.10720593
ECCENTRICITY   = .00100098
INCLINATION    = 82.4721
RA_OF_ASC_NODE = 111.5777
ARG_OF_PERICENTER = 194.7386
MEAN_ANOMALY   = 165.3553

EPHEMERIS_TYPE = 0
CLASSIFICATION_TYPE = U
NORAD_CAT_ID   = 20465
ELEMENT_SET_NO = 999
REV_AT_EPOCH   = 93240
BSTAR          = .41493669E-3
MEAN_MOTION_DOT = .6911E-4
MEAN_MOTION_DDOT = 0

CCSDS_OMM_VERS = 2.0
CREATION_DATE  = 
ORIGINATOR     = 

OBJECT_NAME    = SL-14 R/B
OBJECT_ID      = 1990-010B
CENTER_NAME    = EARTH
REF_FRAME      = TEME
TIME_SYSTEM    = UTC
MEAN_ELEMENT_THEORY = SGP/SGP4

EPOCH          = 2026-01-03T14:23:15.306144
MEAN_MOTION    = 14.83497605
ECCENTRICITY   = .00205147
INCLINATION    = 82.5033
RA_OF_ASC_NODE = 328.5166
ARG_OF_PERICENTER = 150.4259
MEAN_ANOMALY   = 209.8121

EPHEMERIS_TYPE = 0
CLASSIFICATION_TYPE = U
NORAD_CAT_ID   = 20466
ELEMENT_SET_NO = 999
REV_AT_EPOCH   = 91883
BSTAR          = .10229338E-3
MEAN_MOTION_DOT = .868E-5
MEAN_MOTION_DDOT = 0

CCSDS_OMM_VERS = 2.0
CREATION_DATE  = 
ORIGINATOR     = 

OBJECT_NAME    = SL-14 R/B
OBJECT_ID      = 1990-018B
CENTER_NAME    = EARTH
REF_FRAME      = TEME
TIME_SYSTEM    = UTC
MEAN_ELEMENT_THEORY = SGP/SGP4

EPOCH          = 2026-01-03T11:41:24.867168
MEAN_MOTION    = 14.82075018
ECCENTRICITY   = .00152564
INCLINATION    = 82.5221
RA_OF_ASC_NODE = 284.0402
ARG_OF_PERICENTER = 310.3918
MEAN_ANOMALY   = 49.5964

EPHEMERIS_TYPE = 0
CLASSIFICATION_TYPE = U
NORAD_CAT_ID   = 20511
ELEMENT_SET_NO = 999
REV_AT_EPOCH   = 91292
BSTAR          = .11272172E-3
MEAN_MOTION_DOT = .92E-5
MEAN_MOTION_DDOT = 0

CCSDS_OMM_VERS = 2.0
CREATION_DATE  = 
ORIGINATOR     = 

OBJECT_NAME    = HST
OBJECT_ID      = 1990-037B
CENTER_NAME    = EARTH
REF_FRAME      = TEME
TIME_SYSTEM    = UTC
MEAN_ELEMENT_THEORY = SGP/SGP4

EPOCH          = 2026-01-03T08:13:36.496992
MEAN_MOTION    = 15.28373863
ECCENTRICITY   = .00025878
INCLINATION    = 28.4663
RA_OF_ASC_NODE = 125.4085
ARG_OF_PERICENTER = 106.1081
MEAN_ANOMALY   = 253.9799

EPHEMERIS_TYPE = 0
CLASSIFICATION_TYPE = U
NORAD_CAT_ID   = 20580
ELEMENT_SET_NO = 999
REV_AT_EPOCH   = 76330
BSTAR          = .42033988E-3
MEAN_MOTION_DOT = .12191E-3
MEAN_MOTION_DDOT = 0

CCSDS_OMM_VERS = 2.0
CREATION_DATE  = 
ORIGINATOR     = 

OBJECT_NAME    = SL-16 R/B
OBJECT_ID      = 1990-046B
CENTER_NAME    = EARTH
REF_FRAME      = TEME
TIME_SYSTEM    = UTC
MEAN_ELEMENT_THEORY = SGP/SGP4

EPOCH          = 2026-01-03T14:09:26.564256
MEAN_MOTION    = 14.15000582
ECCENTRICITY   = .00127469
INCLINATION    = 70.9995
RA_OF_ASC_NODE = 74.6350
ARG_OF_PERICENTER = 36.2309
MEAN_ANOMALY   = 323.9675

EPHEMERIS_TYPE = 0
CLASSIFICATION_TYPE = U
NORAD_CAT_ID   = 20625
ELEMENT_SET_NO = 999
REV_AT_EPOCH   = 83918
BSTAR          = .2022909E-3
MEAN_MOTION_DOT = .344E-5
MEAN_MOTION_DDOT = 0

CCSDS_OMM_VERS = 2.0
CREATION_DATE  = 
ORIGINATOR     = 

OBJECT_NAME    = COSMOS 2084
OBJECT_ID      = 1990-055A
CENTER_NAME    = EARTH
REF_FRAME      = TEME
TIME_SYSTEM    = UTC
MEAN_ELEMENT_THEORY = SGP/SGP4

EPOCH          = 2026-01-03T15:01:18.117696
MEAN_MOTION    = 15.05176470
ECCENTRICITY   = .00280382
INCLINATION    = 62.7886
RA_OF_ASC_NODE = 197.4111
ARG_OF_PERICENTER = 177.8605
MEAN_ANOMALY   = 182.2621

EPHEMERIS_TYPE = 0
CLASSIFICATION_TYPE = U
NORAD_CAT_ID   = 20663
ELEMENT_SET_NO = 999
REV_AT_EPOCH   = 92652
BSTAR          = .37543373E-3
MEAN_MOTION_DOT = .5224E-4
MEAN_MOTION_DDOT = 0

CCSDS_OMM_VERS = 2.0
CREATION_DATE  = 
ORIGINATOR     = 

OBJECT_NAME    = SL-6 R/B(2)
OBJECT_ID      = 1990-055D
CENTER_NAME    = EARTH
REF_FRAME      = TEME
TIME_SYSTEM    = UTC
MEAN_ELEMENT_THEORY = SGP/SGP4

EPOCH          = 2026-01-03T15:42:13.350816
MEAN_MOTION    = 15.03209141
ECCENTRICITY   = .00154431
INCLINATION    = 62.7841
RA_OF_ASC_NODE = 114.9472
ARG_OF_PERICENTER = 323.0313
MEAN_ANOMALY   = 36.9720

EPHEMERIS_TYPE = 0
CLASSIFICATION_TYPE = U
NORAD_CAT_ID   = 20666
ELEMENT_SET_NO = 999
REV_AT_EPOCH   = 92841
BSTAR          = .32444003E-3
MEAN_MOTION_DOT = .4226E-4
MEAN_MOTION_DDOT = 0

CCSDS_OMM_VERS = 2.0
CREATION_DATE  = 
ORIGINATOR     = 

OBJECT_NAME    = SL-8 R/B
OBJECT_ID      = 1990-078B
CENTER_NAME    = EARTH
REF_FRAME      = TEME
TIME_SYSTEM    = UTC
MEAN_ELEMENT_THEORY = SGP/SGP4

EPOCH          = 2026-01-03T08:11:41.921088
MEAN_MOTION    = 14.86729534
ECCENTRICITY   = .0369272
INCLINATION    = 82.9066
RA_OF_ASC_NODE = 309.9632
ARG_OF_PERICENTER = 233.1374
MEAN_ANOMALY   = 123.5466

EPHEMERIS_TYPE = 0
CLASSIFICATION_TYPE = U
NORAD_CAT_ID   = 20775
ELEMENT_SET_NO = 999
REV_AT_EPOCH   = 79958
BSTAR          = .68195957E-3
MEAN_MOTION_DOT = .22255E-3
MEAN_MOTION_DDOT = 0

CCSDS_OMM_VERS = 2.0
CREATION_DATE  = 
ORIGINATOR     = 

OBJECT_NAME    = SL-8 R/B
OBJECT_ID      = 1991-006B
CENTER_NAME    = EARTH
REF_FRAME      = TEME
TIME_SYSTEM    = UTC
MEAN_ELEMENT_THEORY = SGP/SGP4

EPOCH          = 2026-01-03T14:42:46.731168
MEAN_MOTION    = 13.77492930
ECCENTRICITY   = .00216761
INCLINATION    = 82.9409
RA_OF_ASC_NODE = 218.4423
ARG_OF_PERICENTER = 215.2360
MEAN_ANOMALY   = 198.7908

EPHEMERIS_TYPE = 0
CLASSIFICATION_TYPE = U
NORAD_CAT_ID   = 21088
ELEMENT_SET_NO = 999
REV_AT_EPOCH   = 75511
BSTAR          = .36028327E-4
MEAN_MOTION_DOT = .51E-6
MEAN_MOTION_DDOT = 0

CCSDS_OMM_VERS = 2.0
CREATION_DATE  = 
ORIGINATOR     = 

OBJECT_NAME    = OKEAN-3
OBJECT_ID      = 1991-039A
CENTER_NAME    = EARTH
REF_FRAME      = TEME
TIME_SYSTEM    = UTC
MEAN_ELEMENT_THEORY = SGP/SGP4

EPOCH          = 2026-01-03T13:38:12.158592
MEAN_MOTION    = 15.04279375
ECCENTRICITY   = .00140715
INCLINATION    = 82.5152
RA_OF_ASC_NODE = 39.9149
ARG_OF_PERICENTER = 185.9660
MEAN_ANOMALY   = 174.1401

EPHEMERIS_TYPE = 0
CLASSIFICATION_TYPE = U
NORAD_CAT_ID   = 21397
ELEMENT_SET_NO = 999
REV_AT_EPOCH   = 85524
BSTAR          = .40109461E-3
MEAN_MOTION_DOT = .562E-4
MEAN_MOTION_DDOT = 0

CCSDS_OMM_VERS = 2.0
CREATION_DATE  = 
ORIGINATOR     = 

OBJECT_NAME    = COSMOS 2151
OBJECT_ID      = 1991-042A
CENTER_NAME    = EARTH
REF_FRAME      = TEME
TIME_SYSTEM    = UTC
MEAN_ELEMENT_THEORY = SGP/SGP4

EPOCH          = 2026-01-03T15:22:53.995872
MEAN_MOTION    = 14.99796918
ECCENTRICITY   = .00111302
INCLINATION    = 82.4972
RA_OF_ASC_NODE = 146.3969
ARG_OF_PERICENTER = 280.3840
MEAN_ANOMALY   = 79.6129

EPHEMERIS_TYPE = 0
CLASSIFICATION_TYPE = U
NORAD_CAT_ID   = 21422
ELEMENT_SET_NO = 999
REV_AT_EPOCH   = 85344
BSTAR          = .27517491E-3
MEAN_MOTION_DOT = .3432E-4
MEAN_MOTION_DDOT = 0

