DELTA 2 R/B(1)          
1 20453U 90008B   26002.99460823  .00073326  00000+0  11040-2 0  9990
2 20453  35.6049 243.0856 0105809  11.2163 349.0897 15.47348327915928
COSMOS 2058             
1 20465U 90010A   26003.55138993  .00006911  00000+0  41494-3 0  9992
2 20465  82.4721 111.5777 0010009 194.7386 165.3553 15.10720593932409
SL-14 R/B               
1 20466U 90010B   26003.59948271  .00000868  00000+0  10229-3 0  9992
2 20466  82.5033 328.5166 0020514 150.4259 209.8121 14.83497605918839
SL-14 R/B               
1 20511U 90018B   26003.48709337  .00000920  00000+0  11272-3 0  9995
2 20511  82.5221 284.0402 0015256 310.3918  49.5964 14.82075018912921
HST                     
1 20580U 90037B   26003.34278353  .00012191  00000+0  42034-3 0  9999
2 20580  28.4663 125.4085 0002587 106.1081 253.9799 15.28373863763309
SL-16 R/B               
1 20625U 90046B   26003.58989079  .00000344  00000+0  20229-3 0  9998
2 20625  70.9995  74.6350 0012746  36.2309 323.9675 14.15000582839184
COSMOS 2084             
1 20663U 90055A   26003.62590414  .00005224  00000+0  37543-3 0  9995
2 20663  62.7886 197.4111 0028038 177.8605 182.2621 15.05176470926527
SL-6 R/B(2)             
1 20666U 90055D   26003.65432119  .00004226  00000+0  32444-3 0  9994
2 20666  62.7841 114.9472 0015443 323.0313  36.9720 15.03209141928417
SL-8 R/B                
1 20775U 90078B   26003.34145742  .00022255  00000+0  68196-3 0  9994
2 20775  82.9066 309.9632 0369272 233.1374 123.5466 14.86729534799582
SL-8 R/B                
1 21088U 91006B   26003.61304087  .00000051  00000+0  36028-4 0  9993
2 21088  82.9409 218.4423 0021676 215.2360 198.7908 13.77492930755114
OKEAN-3                 
1 21397U 91039A   26003.56819628  .00005620  00000+0  40109-3 0  9999
2 21397  82.5152  39.9149 0014071 185.9660 174.1401 15.04279375855245
COSMOS 2151             
1 21422U 91042A   26003.64090273  .00003432  00000+0  27517-3 0  9995
2 21422  82.4972 146.3969 0011130 280.3840  79.6129 14.99796918853445
